[{"OBJECT_NAME":"ICEYE-X7","OBJECT_ID":"2020-068L","EPOCH":"2026-03-09T22:52:28.702272","MEAN_MOTION":15.29152508,"ECCENTRICITY":0.00068409,"INCLINATION":97.7412,"RA_OF_ASC_NODE":31.2076,"ARG_OF_PERICENTER":332.3045,"MEAN_ANOMALY":27.7829,"EPHEMERIS_TYPE":0,"CLASSIFICATION_TYPE":"U","NORAD_CAT_ID":46496,"ELEMENT_SET_NO":999,"REV_AT_EPOCH":29961,"BSTAR":0.0005654802,"MEAN_MOTION_DOT":0.00015947,"MEAN_MOTION_DDOT":0},{"OBJECT_NAME":"STARLINK-31451","OBJECT_ID":"2024-060U","EPOCH":"2026-03-09T12:55:43.254048","MEAN_MOTION":15.27579905,"ECCENTRICITY":0.00011776,"INCLINATION":43.0004,"RA_OF_ASC_NODE":260.3726,"ARG_OF_PERICENTER":278.2614,"MEAN_ANOMALY":81.8104,"EPHEMERIS_TYPE":0,"CLASSIFICATION_TYPE":"U","NORAD_CAT_ID":59366,"ELEMENT_SET_NO":999,"REV_AT_EPOCH":11004,"BSTAR":3.1325835e-5,"MEAN_MOTION_DOT":6.0e-6,"MEAN_MOTION_DDOT":0}]
